NORAD_CAT_ID,OBJECT_NAME,OBJECT_TYPE,EPOCH,MEAN_MOTION,ECCENTRICITY,INCLINATION,RA_OF_ASC_NODE,ARG_OF_PERICENTER,MEAN_ANOMALY,BSTAR,MEAN_MOTION_DOT,MEAN_MOTION_DDOT,TLE_LINE0,TLE_LINE1,TLE_LINE2,SEMIMAJOR_AXIS,PERIOD,APOGEE,PERIGEE,DECAYED
53264.0,STARLINK-3950,PAYLOAD,2024-02-06 04:24:02,15.08840106,0.0001359,53.2186,17.1437,101.4878,258.6267,1.2084e-05,-9.6e-07,0.0,0 STARLINK-3950,1 53264U 22086Y   24037.18336453 -.00000096  00000-0  12084-4 0  9992,2 53264  53.2186  17.1437 0001359 101.4878 258.6267 15.08840106 85773,6917.88,95.438,540.685,538.805,0.0
53264.0,STARLINK-3950,PAYLOAD,2024-02-06 09:10:11,15.08844834,0.0001422,53.2191,16.2471,79.9358,280.1795,4.5028e-05,4.29e-06,0.0,0 STARLINK-3950,1 53264U 22086Y   24037.38208101  .00000429  00000-0  45028-4 0  9995,2 53264  53.2191  16.2471 0001422  79.9358 280.1795 15.08844834 85981,6917.866,95.437,540.714,538.747,0.0
53264.0,STARLINK-3950,PAYLOAD,2024-02-07 07:25:35,15.08849908,0.0001507,53.2192,12.082,79.5193,280.5969,9.9619e-05,1.298e-05,0.0,0 STARLINK-3950,1 53264U 22086Y   24038.30943659  .00001298  00000-0  99619-4 0  9992,2 53264  53.2192  12.0820 0001507  79.5193 280.5969 15.08849908 85941,6917.85,95.437,540.758,538.673,0.0
53264.0,STARLINK-3950,PAYLOAD,2024-02-07 21:44:05,15.08829359,9.26e-05,53.22,9.4075,99.4554,260.6543,-8.2541e-05,-1.601e-05,0.0,0 STARLINK-3950,1 53264U 22086Y   24038.90561658 -.00001601  00000-0 -82541-4 0  9999,2 53264  53.2200   9.4075 0000926  99.4554 260.6543 15.08829359 86215,6917.913,95.438,540.419,539.137,0.0
53264.0,STARLINK-3950,PAYLOAD,2024-02-08 04:05:37,15.08841032,0.0001848,53.219,8.2211,103.5668,256.553,-4.4225e-06,-3.59e-06,0.0,0 STARLINK-3950,1 53264U 22086Y   24039.17056720 -.00000359  00000-0 -44225-5 0  9995,2 53264  53.2190   8.2211 0001848 103.5668 256.5530 15.08841032 86075,6917.877,95.437,541.021,538.464,0.0
53264.0,STARLINK-3950,PAYLOAD,2024-02-08 07:16:22,15.08846377,0.000145,53.2183,7.6264,97.5219,262.5938,4.3929e-05,4.11e-06,0.0,0 STARLINK-3950,1 53264U 22086Y   24039.30304251  .00000411  00000-0  43929-4 0  9991,2 53264  53.2183   7.6264 0001450  97.5219 262.5938 15.08846377 86279,6917.861,95.437,540.729,538.723,0.0
53264.0,STARLINK-3950,PAYLOAD,2024-02-09 03:56:23,15.08848618,0.0001753,53.2188,3.7618,74.8724,285.2462,-5.4482e-06,-3.75e-06,0.0,0 STARLINK-3950,1 53264U 22086Y   24040.16416352 -.00000375  00000-0 -54482-5 0  9991,2 53264  53.2188   3.7618 0001753  74.8724 285.2462 15.08848618 86408,6917.854,95.437,540.932,538.506,0.0
53264.0,STARLINK-3950,PAYLOAD,2024-02-10 03:47:11,15.0883854,0.000142,53.2184,359.3007,99.6749,260.4404,-1.4925e-05,-5.25e-06,0.0,0 STARLINK-3950,1 53264U 22086Y   24041.15777080 -.00000525  00000-0 -14925-4 0  9993,2 53264  53.2184 359.3007 0001420  99.6749 260.4404 15.08838540 86379,6917.885,95.438,540.732,538.768,0.0
53264.0,STARLINK-3950,PAYLOAD,2024-02-10 21:16:25,15.08865913,0.0001565,53.2184,356.03,106.1711,253.9453,-0.00031467,-5.296e-05,0.0,0 STARLINK-3950,1 53264U 22086Y   24041.88641019 -.00005296  00000-0 -31467-3 0  9994,2 53264  53.2184 356.0300 0001565 106.1711 253.9453 15.08865913 86669,6917.801,95.436,540.749,538.584,0.0
53264.0,STARLINK-3950,PAYLOAD,2024-02-11 03:37:57,15.08852327,0.0001634,53.2195,354.8467,119.0544,241.0612,-1.9704e-05,-6.02e-06,0.0,0 STARLINK-3950,1 53264U 22086Y   24042.15136418 -.00000602  00000-0 -19704-4 0  9994,2 53264  53.2195 354.8467 0001634 119.0544 241.0612 15.08852327 86520,6917.843,95.437,540.838,538.577,0.0
53264.0,STARLINK-3950,PAYLOAD,2024-02-11 06:48:43,15.08858159,0.0001536,53.2185,354.2448,108.2781,251.8378,-5.2983e-05,-1.132e-05,0.0,0 STARLINK-3950,1 53264U 22086Y   24042.28384048 -.00001132  00000-0 -52983-4 0  9997,2 53264  53.2185 354.2448 0001536 108.2781 251.8378 15.08858159 86725,6917.825,95.436,540.752,538.627,0.0
53264.0,STARLINK-3950,PAYLOAD,2024-02-12 01:53:22,15.08839513,0.0001502,53.2183,350.6747,112.5136,247.6015,7.5698e-05,9.17e-06,0.0,0 STARLINK-3950,1 53264U 22086Y   24043.07872887  .00000917  00000-0  75698-4 0  9994,2 53264  53.2183 350.6747 0001502 112.5136 247.6015 15.08839513 86667,6917.882,95.438,540.786,538.708,0.0
53264.0,STARLINK-3950,PAYLOAD,2024-02-13 03:19:33,15.08837161,0.0001473,53.2188,345.9238,101.4509,258.6649,-1.2832e-05,-4.92e-06,0.0,0 STARLINK-3950,1 53264U 22086Y   24044.13857639 -.00000492  00000-0 -12832-4 0  9991,2 53264  53.2188 345.9238 0001473 101.4509 258.6649 15.08837161 86822,6917.889,95.438,540.773,538.735,0.0
53264.0,STARLINK-3950,PAYLOAD,2024-02-13 06:30:18,15.08844294,0.0001441,53.218,345.3263,95.7286,264.387,2.9509e-05,1.82e-06,0.0,0 STARLINK-3950,1 53264U 22086Y   24044.27105142  .00000182  00000-0  29509-4 0  9994,2 53264  53.2180 345.3263 0001441  95.7286 264.3870 15.08844294 86845,6917.867,95.437,540.729,538.735,0.0
53264.0,STARLINK-3950,PAYLOAD,2024-02-13 12:51:52,15.08834188,0.0001832,53.2192,344.1365,92.1547,267.9654,-9.4015e-05,-1.784e-05,0.0,0 STARLINK-3950,1 53264U 22086Y   24044.53602224 -.00001784  00000-0 -94015-4 0  9991,2 53264  53.2192 344.1365 0001832  92.1547 267.9654 15.08834188 87068,6917.898,95.438,541.031,538.496,0.0
53264.0,STARLINK-3950,PAYLOAD,2024-02-14 04:45:41,15.08853466,0.0001536,53.2178,341.165,109.4844,250.6314,0.00021033,3.062e-05,0.0,0 STARLINK-3950,1 53264U 22086Y   24045.19840194  .00003062  00000-0  21033-3 0  9992,2 53264  53.2178 341.1650 0001536 109.4844 250.6314 15.08853466 86981,6917.839,95.437,540.767,538.642,0.0
53264.0,STARLINK-3950,PAYLOAD,2024-02-14 12:42:38,15.08840693,0.0001816,53.2177,339.6766,81.815,278.3049,0.00012521,1.705e-05,0.0,0 STARLINK-3950,1 53264U 22086Y   24045.52961395  .00001705  00000-0  12521-3 0  9990,2 53264  53.2177 339.6766 0001816  81.8150 278.3049 15.08840693 87211,6917.878,95.438,541.0,538.487,0.0
53264.0,STARLINK-3950,PAYLOAD,2024-02-15 04:36:29,15.08844438,0.0001567,53.2183,336.7053,84.7193,275.3978,0.00013051,1.79e-05,0.0,0 STARLINK-3950,1 53264U 22086Y   24046.19201265  .00001790  00000-0  13051-3 0  9990,2 53264  53.2183 336.7053 0001567  84.7193 275.3978 15.08844438 87317,6917.867,95.437,540.816,538.648,0.0
53264.0,STARLINK-3950,PAYLOAD,2024-02-15 18:54:59,15.08830433,0.000141,53.2185,334.0265,89.7576,270.3578,7.1064e-05,8.43e-06,0.0,0 STARLINK-3950,1 53264U 22086Y   24046.78818435  .00000843  00000-0  71064-4 0  9995,2 53264  53.2185 334.0265 0001410  89.7576 270.3578 15.08830433 87223,6917.91,95.438,540.75,538.799,0.0
53264.0,STARLINK-3950,PAYLOAD,2024-02-16 04:27:16,15.08851927,0.0001503,53.2182,332.2416,105.9078,254.208,-1.1876e-05,-4.77e-06,0.0,0 STARLINK-3950,1 53264U 22086Y   24047.18561338 -.00000477  00000-0 -11876-4 0  9997,2 53264  53.2182 332.2416 0001503 105.9078 254.2080 15.08851927 87285,6917.844,95.437,540.749,538.669,0.0
53264.0,STARLINK-3950,PAYLOAD,2024-02-16 12:24:12,15.08847334,0.0001282,53.2175,330.7559,102.0289,258.0847,-5.4074e-05,-1.149e-05,0.0,0 STARLINK-3950,1 53264U 22086Y   24047.51681593 -.00001149  00000-0 -54074-4 0  9994,2 53264  53.2175 330.7559 0001282 102.0289 258.0847 15.08847334 87510,6917.858,95.437,540.61,538.836,0.0
53264.0,STARLINK-3950,PAYLOAD,2024-02-16 21:56:32,15.08835512,0.0001473,53.2189,328.9726,79.8463,280.2695,0.00011769,1.585e-05,0.0,0 STARLINK-3950,1 53264U 22086Y   24047.91426038  .00001585  00000-0  11769-3 0  9994,2 53264  53.2189 328.9726 0001473  79.8463 280.2695 15.08835512 87576,6917.894,95.438,540.778,538.74,0.0
53264.0,STARLINK-3950,PAYLOAD,2024-02-17 04:18:03,15.08852473,0.0001508,53.2186,327.7798,91.6194,268.497,0.00010381,1.365e-05,0.0,0 STARLINK-3950,1 53264U 22086Y   24048.17921009  .00001365  00000-0  10381-3 0  9996,2 53264  53.2186 327.7798 0001508  91.6194 268.4970 15.08852473 87615,6917.842,95.437,540.75,538.664,0.0
53264.0,STARLINK-3950,PAYLOAD,2024-02-17 21:47:19,15.08835352,0.0001172,53.2161,324.5118,86.1015,274.0111,7.7088e-05,9.39e-06,0.0,0 STARLINK-3950,1 53264U 22086Y   24048.90786132  .00000939  00000-0  77088-4 0  9997,2 53264  53.2161 324.5118 0001172  86.1015 274.0111 15.08835352 87726,6917.895,95.438,540.57,538.949,0.0
53264.0,STARLINK-3950,PAYLOAD,2024-02-18 00:58:05,15.08838943,0.0001177,53.2189,323.9163,100.7573,259.3552,0.00012345,1.677e-05,0.0,0 STARLINK-3950,1 53264U 22086Y   24049.04033723  .00001677  00000-0  12345-3 0  9998,2 53264  53.2189 323.9163 0001177 100.7573 259.3552 15.08838943 87562,6917.884,95.438,540.563,538.934,0.0
53264.0,STARLINK-3950,PAYLOAD,2024-02-18 21:38:05,15.08842667,0.0001267,53.2192,320.052,64.4497,295.6626,7.7143e-05,9.4e-06,0.0,0 STARLINK-3950,1 53264U 22086Y   24049.90145656  .00000940  00000-0  77143-4 0  9992,2 53264  53.2192 320.0520 0001267  64.4497 295.6626 15.08842667 87879,6917.872,95.437,540.614,538.861,0.0
53264.0,STARLINK-3950,PAYLOAD,2024-02-18 23:13:28,15.08854402,0.0001318,53.2191,319.7522,74.3082,285.8055,0.00012864,1.761e-05,0.0,0 STARLINK-3950,1 53264U 22086Y   24049.96768787  .00001761  00000-0  12864-3 0  9994,2 53264  53.2191 319.7522 0001318  74.3082 285.8055 15.08854402 87701,6917.836,95.437,540.613,538.79,0.0
53264.0,STARLINK-3950,PAYLOAD,2024-02-19 10:21:10,15.08845555,0.0001293,53.2189,317.6704,88.8812,271.2328,-2.6406e-05,-7.08e-06,0.0,0 STARLINK-3950,1 53264U 22086Y   24050.43137493 -.00000708  00000-0 -26406-4 0  9992,2 53264  53.2189 317.6704 0001293  88.8812 271.2328 15.08845555 87778,6917.863,95.437,540.623,538.834,0.0
53264.0,STARLINK-3950,PAYLOAD,2024-02-19 23:04:16,15.08833185,0.0001769,53.2206,315.3002,118.7661,241.3509,-3.3531e-05,-8.22e-06,0.0,0 STARLINK-3950,1 53264U 22086Y   24050.96130701 -.00000822  00000-0 -33531-4 0  9999,2 53264  53.2206 315.3002 0001769 118.7661 241.3509 15.08833185 88032,6917.901,95.438,540.99,538.542,0.0
53264.0,STARLINK-3950,PAYLOAD,2024-02-20 03:50:25,15.08837812,0.0001526,53.2176,314.4015,112.9377,247.1776,-3.2153e-05,-8e-06,0.0,0 STARLINK-3950,1 53264U 22086Y   24051.16002301 -.00000800  00000-0 -32153-4 0  9991,2 53264  53.2176 314.4015 0001526 112.9377 247.1776 15.08837812 87886,6917.887,95.438,540.808,538.696,0.0
